[{"OBJECT_NAME":"XW-2E","OBJECT_ID":"2015-049L","EPOCH":"2023-04-26T22:56:32.359776","MEAN_MOTION":15.35487437,"ECCENTRICITY":0.0006751,"INCLINATION":97.4575,"RA_OF_ASC_NODE":130.1417,"ARG_OF_PERICENTER":310.0287,"MEAN_ANOMALY":86.8673,"EPHEMERIS_TYPE":0,"CLASSIFICATION_TYPE":"U","NORAD_CAT_ID":40909,"ELEMENT_SET_NO":999,"REV_AT_EPOCH":42127,"BSTAR":0.00080503,"MEAN_MOTION_DOT":0.00027765,"MEAN_MOTION_DDOT":0},{"OBJECT_NAME":"XW-2F","OBJECT_ID":"2015-049M","EPOCH":"2023-04-26T22:24:48.776832","MEAN_MOTION":15.34871164,"ECCENTRICITY":0.000768,"INCLINATION":97.4651,"RA_OF_ASC_NODE":129.3427,"ARG_OF_PERICENTER":315.5904,"MEAN_ANOMALY":89.1686,"EPHEMERIS_TYPE":0,"CLASSIFICATION_TYPE":"U","NORAD_CAT_ID":40910,"ELEMENT_SET_NO":999,"REV_AT_EPOCH":42102,"BSTAR":0.00076012,"MEAN_MOTION_DOT":0.00025701,"MEAN_MOTION_DDOT":0},{"OBJECT_NAME":"XW-2B","OBJECT_ID":"2015-049N","EPOCH":"2023-04-27T05:10:35.329152","MEAN_MOTION":15.26701014,"ECCENTRICITY":0.0009909,"INCLINATION":97.4925,"RA_OF_ASC_NODE":125.0982,"ARG_OF_PERICENTER":348.3079,"MEAN_ANOMALY":74.9555,"EPHEMERIS_TYPE":0,"CLASSIFICATION_TYPE":"U","NORAD_CAT_ID":40911,"ELEMENT_SET_NO":999,"REV_AT_EPOCH":42058,"BSTAR":0.00053886,"MEAN_MOTION_DOT":0.00014109,"MEAN_MOTION_DDOT":0},{"OBJECT_NAME":"KAITUO 1B","OBJECT_ID":"2015-049P","EPOCH":"2023-04-27T03:35:23.769024","MEAN_MOTION":15.4016278,"ECCENTRICITY":0.000694,"INCLINATION":97.4213,"RA_OF_ASC_NODE":134.0565,"ARG_OF_PERICENTER":256.3335,"MEAN_ANOMALY":172.1336,"EPHEMERIS_TYPE":0,"CLASSIFICATION_TYPE":"U","NORAD_CAT_ID":40912,"ELEMENT_SET_NO":999,"REV_AT_EPOCH":42174,"BSTAR":0.00079881,"MEAN_MOTION_DOT":0.00032074,"MEAN_MOTION_DDOT":0},{"OBJECT_NAME":"LAPAN-A2","OBJECT_ID":"2015-052B","EPOCH":"2023-04-25T20:01:08.131296","MEAN_MOTION":14.77178088,"ECCENTRICITY":0.0013247,"INCLINATION":5.9994,"RA_OF_ASC_NODE":100.2864,"ARG_OF_PERICENTER":277.3081,"MEAN_ANOMALY":82.5503,"EPHEMERIS_TYPE":0,"CLASSIFICATION_TYPE":"U","NORAD_CAT_ID":40931,"ELEMENT_SET_NO":999,"REV_AT_EPOCH":40960,"BSTAR":0.0001446,"MEAN_MOTION_DOT":1.693e-5,"MEAN_MOTION_DDOT":0},{"OBJECT_NAME":"LQSAT","OBJECT_ID":"2015-057A","EPOCH":"2023-04-27T09:32:30.892128","MEAN_MOTION":14.73836574,"ECCENTRICITY":0.0018714,"INCLINATION":97.7072,"RA_OF_ASC_NODE":153.8693,"ARG_OF_PERICENTER":32.3074,"MEAN_ANOMALY":327.9253,"EPHEMERIS_TYPE":0,"CLASSIFICATION_TYPE":"U","NORAD_CAT_ID":40958,"ELEMENT_SET_NO":999,"REV_AT_EPOCH":40621,"BSTAR":0.00019725,"MEAN_MOTION_DOT":1.247e-5,"MEAN_MOTION_DDOT":0},{"OBJECT_NAME":"ATHENOXAT 1","OBJECT_ID":"2015-077C","EPOCH":"2023-04-27T01:49:27.636384","MEAN_MOTION":15.47001161,"ECCENTRICITY":0.0005054,"INCLINATION":14.9826,"RA_OF_ASC_NODE":259.2683,"ARG_OF_PERICENTER":35.2465,"MEAN_ANOMALY":110.7537,"EPHEMERIS_TYPE":0,"CLASSIFICATION_TYPE":"U","NORAD_CAT_ID":41168,"ELEMENT_SET_NO":999,"REV_AT_EPOCH":40836,"BSTAR":0.0017235,"MEAN_MOTION_DOT":0.00092617,"MEAN_MOTION_DDOT":0},{"OBJECT_NAME":"GALASSIA","OBJECT_ID":"2015-077E","EPOCH":"2023-04-26T18:38:14.357184","MEAN_MOTION":15.35270832,"ECCENTRICITY":0.0008473,"INCLINATION":14.9868,"RA_OF_ASC_NODE":263.7517,"ARG_OF_PERICENTER":27.4815,"MEAN_ANOMALY":332.5956,"EPHEMERIS_TYPE":0,"CLASSIFICATION_TYPE":"U","NORAD_CAT_ID":41170,"ELEMENT_SET_NO":999,"REV_AT_EPOCH":40813,"BSTAR":0.0011508,"MEAN_MOTION_DOT":0.00041968,"MEAN_MOTION_DDOT":0},{"OBJECT_NAME":"VELOX-II","OBJECT_ID":"2015-077F","EPOCH":"2023-04-26T01:28:36.295680","MEAN_MOTION":15.25363191,"ECCENTRICITY":0.000587,"INCLINATION":14.9921,"RA_OF_ASC_NODE":4.1374,"ARG_OF_PERICENTER":173.7557,"MEAN_ANOMALY":186.2839,"EPHEMERIS_TYPE":0,"CLASSIFICATION_TYPE":"U","NORAD_CAT_ID":41171,"ELEMENT_SET_NO":999,"REV_AT_EPOCH":40722,"BSTAR":0.00083001,"MEAN_MOTION_DOT":0.00022479,"MEAN_MOTION_DDOT":0},{"OBJECT_NAME":"CHUBUSAT-2","OBJECT_ID":"2016-012B","EPOCH":"2023-04-26T13:37:51.922848","MEAN_MOTION":15.03611469,"ECCENTRICITY":0.001216,"INCLINATION":31.0016,"RA_OF_ASC_NODE":187.729,"ARG_OF_PERICENTER":23.9343,"MEAN_ANOMALY":336.1857,"EPHEMERIS_TYPE":0,"CLASSIFICATION_TYPE":"U","NORAD_CAT_ID":41338,"ELEMENT_SET_NO":999,"REV_AT_EPOCH":39460,"BSTAR":0.00025598,"MEAN_MOTION_DOT":3.677e-5,"MEAN_MOTION_DDOT":0},{"OBJECT_NAME":"CHUBUSAT-3","OBJECT_ID":"2016-012C","EPOCH":"2023-04-27T13:58:11.131392","MEAN_MOTION":15.03515469,"ECCENTRICITY":0.0012051,"INCLINATION":31.0112,"RA_OF_ASC_NODE":178.2835,"ARG_OF_PERICENTER":40.6784,"MEAN_ANOMALY":110.8769,"EPHEMERIS_TYPE":0,"CLASSIFICATION_TYPE":"U","NORAD_CAT_ID":41339,"ELEMENT_SET_NO":999,"REV_AT_EPOCH":39475,"BSTAR":0.00036251,"MEAN_MOTION_DOT":5.157e-5,"MEAN_MOTION_DDOT":0},{"OBJECT_NAME":"HORYU-4","OBJECT_ID":"2016-012D","EPOCH":"2023-04-26T19:28:22.781856","MEAN_MOTION":15.07192964,"ECCENTRICITY":0.0011432,"INCLINATION":31.0024,"RA_OF_ASC_NODE":153.6007,"ARG_OF_PERICENTER":89.371,"MEAN_ANOMALY":270.8237,"EPHEMERIS_TYPE":0,"CLASSIFICATION_TYPE":"U","NORAD_CAT_ID":41340,"ELEMENT_SET_NO":999,"REV_AT_EPOCH":39496,"BSTAR":0.00041631,"MEAN_MOTION_DOT":6.52e-5,"MEAN_MOTION_DDOT":0},{"OBJECT_NAME":"OUFTI-1","OBJECT_ID":"2016-025C","EPOCH":"2023-04-26T19:07:44.156640","MEAN_MOTION":15.29840794,"ECCENTRICITY":0.0105798,"INCLINATION":98.1889,"RA_OF_ASC_NODE":315.2698,"ARG_OF_PERICENTER":270.2379,"MEAN_ANOMALY":88.6736,"EPHEMERIS_TYPE":0,"CLASSIFICATION_TYPE":"U","NORAD_CAT_ID":41458,"ELEMENT_SET_NO":999,"REV_AT_EPOCH":38518,"BSTAR":0.00078279,"MEAN_MOTION_DOT":0.00026823,"MEAN_MOTION_DDOT":0},{"OBJECT_NAME":"E-ST@R-II","OBJECT_ID":"2016-025D","EPOCH":"2023-04-27T03:42:50.948640","MEAN_MOTION":15.27027614,"ECCENTRICITY":0.0112041,"INCLINATION":98.1926,"RA_OF_ASC_NODE":313.3957,"ARG_OF_PERICENTER":275.9418,"MEAN_ANOMALY":82.8943,"EPHEMERIS_TYPE":0,"CLASSIFICATION_TYPE":"U","NORAD_CAT_ID":41459,"ELEMENT_SET_NO":999,"REV_AT_EPOCH":38510,"BSTAR":0.00072871,"MEAN_MOTION_DOT":0.00023214,"MEAN_MOTION_DDOT":0},{"OBJECT_NAME":"AAUSAT 4","OBJECT_ID":"2016-025E","EPOCH":"2023-04-27T03:36:14.883264","MEAN_MOTION":15.4669619,"ECCENTRICITY":0.0073607,"INCLINATION":98.1698,"RA_OF_ASC_NODE":324.2855,"ARG_OF_PERICENTER":235.0464,"MEAN_ANOMALY":274.0976,"EPHEMERIS_TYPE":0,"CLASSIFICATION_TYPE":"U","NORAD_CAT_ID":41460,"ELEMENT_SET_NO":999,"REV_AT_EPOCH":38585,"BSTAR":0.0013395,"MEAN_MOTION_DOT":0.00074845,"MEAN_MOTION_DDOT":0},{"OBJECT_NAME":"AIST-2D (RS-48)","OBJECT_ID":"2016-026B","EPOCH":"2023-04-27T04:42:42.257088","MEAN_MOTION":15.55343149,"ECCENTRICITY":0.0009134,"INCLINATION":97.0051,"RA_OF_ASC_NODE":349.4702,"ARG_OF_PERICENTER":72.9692,"MEAN_ANOMALY":43.2118,"EPHEMERIS_TYPE":0,"CLASSIFICATION_TYPE":"U","NORAD_CAT_ID":41465,"ELEMENT_SET_NO":999,"REV_AT_EPOCH":39203,"BSTAR":0.00034454,"MEAN_MOTION_DOT":0.00023368,"MEAN_MOTION_DDOT":0},{"OBJECT_NAME":"NUSAT-1 (FRESCO)","OBJECT_ID":"2016-033B","EPOCH":"2023-04-27T04:28:15.223584","MEAN_MOTION":15.53552429,"ECCENTRICITY":0.0006069,"INCLINATION":97.3851,"RA_OF_ASC_NODE":223.2944,"ARG_OF_PERICENTER":311.2962,"MEAN_ANOMALY":136.4605,"EPHEMERIS_TYPE":0,"CLASSIFICATION_TYPE":"U","NORAD_CAT_ID":41557,"ELEMENT_SET_NO":999,"REV_AT_EPOCH":38569,"BSTAR":0.00080211,"MEAN_MOTION_DOT":0.00051207,"MEAN_MOTION_DDOT":0}]
