XW-2E                   
1 40909U 15049L   23116.95593009  .00027765  00000+0  80503-3 0  9999
2 40909  97.4575 130.1417 0006751 310.0287  86.8673 15.35487437421279
XW-2F                   
1 40910U 15049M   23116.93389788  .00025701  00000+0  76012-3 0  9994
2 40910  97.4651 129.3427 0007680 315.5904  89.1686 15.34871164421021
XW-2B                   
1 40911U 15049N   23117.21568668  .00014109  00000+0  53886-3 0  9997
2 40911  97.4925 125.0982 0009909 348.3079  74.9555 15.26701014420582
KAITUO 1B               
1 40912U 15049P   23117.14958066  .00032074  00000+0  79881-3 0  9999
2 40912  97.4213 134.0565 0006940 256.3335 172.1336 15.40162780421749
LAPAN-A2                
1 40931U 15052B   23115.83412189  .00001693  00000+0  14460-3 0  9994
2 40931   5.9994 100.2864 0013247 277.3081  82.5503 14.77178088409604
LQSAT                   
1 40958U 15057A   23117.39757977  .00001247  00000+0  19725-3 0  9992
2 40958  97.7072 153.8693 0018714  32.3074 327.9253 14.73836574406217
ATHENOXAT 1             
1 41168U 15077C   23117.07601431  .00092617  00000+0  17235-2 0  9990
2 41168  14.9826 259.2683 0005054  35.2465 110.7537 15.47001161408367
GALASSIA                
1 41170U 15077E   23116.77655506  .00041968  00000+0  11508-2 0  9991
2 41170  14.9868 263.7517 0008473  27.4815 332.5956 15.35270832408136
VELOX-II                
1 41171U 15077F   23116.06153120  .00022479  00000+0  83001-3 0  9993
2 41171  14.9921   4.1374 0005870 173.7557 186.2839 15.25363191407224
CHUBUSAT-2              
1 41338U 16012B   23116.56796207  .00003677  00000+0  25598-3 0  9998
2 41338  31.0016 187.7290 0012160  23.9343 336.1857 15.03611469394601
CHUBUSAT-3              
1 41339U 16012C   23117.58207328  .00005157  00000+0  36251-3 0  9996
2 41339  31.0112 178.2835 0012051  40.6784 110.8769 15.03515469394751
HORYU-4                 
1 41340U 16012D   23116.81137479  .00006520  00000+0  41631-3 0  9995
2 41340  31.0024 153.6007 0011432  89.3710 270.8237 15.07192964394969
OUFTI-1                 
1 41458U 16025C   23116.79703885  .00026823  00000+0  78279-3 0  9992
2 41458  98.1889 315.2698 0105798 270.2379  88.6736 15.29840794385183
E-ST@R-II               
1 41459U 16025D   23117.15475635  .00023214  00000+0  72871-3 0  9996
2 41459  98.1926 313.3957 0112041 275.9418  82.8943 15.27027614385102
AAUSAT 4                
1 41460U 16025E   23117.15017226  .00074845  00000+0  13395-2 0  9997
2 41460  98.1698 324.2855 0073607 235.0464 274.0976 15.46696190385855
AIST-2D (RS-48)         
1 41465U 16026B   23117.19632242  .00023368  00000+0  34454-3 0  9992
2 41465  97.0051 349.4702 0009134  72.9692  43.2118 15.55343149392031
NUSAT-1 (FRESCO)        
1 41557U 16033B   23117.18628731  .00051207  00000+0  80211-3 0  9994
2 41557  97.3851 223.2944 0006069 311.2962 136.4605 15.53552429385695
